GLOBALSTAR M001         
1 25162U 98008A   25151.81191759 -.00000059  00000+0  28500-3 0  9998
2 25162  52.0057  20.8852 0000953 186.6929 252.8718 12.38213891241682
GLOBALSTAR M004         
1 25163U 98008B   25151.64283124 -.00000103  00000+0  71144-5 0  9992
2 25163  51.9992 104.6224 0002770 259.8851 271.3767 12.63396411259596
GLOBALSTAR M002         
1 25164U 98008C   25151.64228713 -.00000092  00000+0 -30706-3 0  9991
2 25164  52.0021 281.6881 0002099 122.2112 237.8911 11.61509710182143
GLOBALSTAR M003         
1 25165U 98008D   25151.89921369 -.00000131  00000+0 -44618-3 0  9997
2 25165  51.9980 213.6353 0007943 258.8485 272.8103 12.12075453231244
GLOBALSTAR M014         
1 25306U 98023A   25151.85471566 -.00000075  00000+0  51711-4 0  9995
2 25306  51.9818 204.7240 0000832 310.3130 220.7489 11.65480769189268
GLOBALSTAR M015         
1 25308U 98023C   25151.85528226 -.00000076  00000+0 -62890-4 0  9995
2 25308  51.9848 354.3063 0013137  48.7195 325.3576 11.48858747192206
GLOBALSTAR M008         
1 25309U 98023D   25151.56545606 -.00000036  00000+0  47414-3 0  9994
2 25309  51.9969 246.2457 0003155 141.6741 232.2803 12.36069731236108
